[{"OBJECT_NAME":"STARLINK-2748","OBJECT_ID":"2021-044BJ","EPOCH":"2023-05-30T04:30:37.360224","MEAN_MOTION":15.06401467,"ECCENTRICITY":7.99e-5,"INCLINATION":53.054,"RA_OF_ASC_NODE":320.884,"ARG_OF_PERICENTER":83.3668,"MEAN_ANOMALY":276.7412,"EPHEMERIS_TYPE":0,"CLASSIFICATION_TYPE":"U","NORAD_CAT_ID":48694,"ELEMENT_SET_NO":999,"REV_AT_EPOCH":11128,"BSTAR":0.00026756,"MEAN_MOTION_DOT":3.706e-5,"MEAN_MOTION_DDOT":0},{"OBJECT_NAME":"STARLINK-2616","OBJECT_ID":"2021-044BK","EPOCH":"2023-05-30T05:03:50.453568","MEAN_MOTION":15.0640118,"ECCENTRICITY":9.83e-5,"INCLINATION":53.0539,"RA_OF_ASC_NODE":320.8376,"ARG_OF_PERICENTER":81.2224,"MEAN_ANOMALY":278.8876,"EPHEMERIS_TYPE":0,"CLASSIFICATION_TYPE":"U","NORAD_CAT_ID":48695,"ELEMENT_SET_NO":999,"REV_AT_EPOCH":11129,"BSTAR":0.0010861,"MEAN_MOTION_DOT":0.00015933,"MEAN_MOTION_DDOT":0},{"OBJECT_NAME":"STARLINK-2753","OBJECT_ID":"2021-044BL","EPOCH":"2023-05-30T04:49:54.072192","MEAN_MOTION":15.06402194,"ECCENTRICITY":0.0001073,"INCLINATION":53.0539,"RA_OF_ASC_NODE":325.8817,"ARG_OF_PERICENTER":69.4957,"MEAN_ANOMALY":290.6147,"EPHEMERIS_TYPE":0,"CLASSIFICATION_TYPE":"U","NORAD_CAT_ID":48696,"ELEMENT_SET_NO":999,"REV_AT_EPOCH":11122,"BSTAR":-4.1112e-6,"MEAN_MOTION_DOT":-3.43e-6,"MEAN_MOTION_DDOT":0},{"OBJECT_NAME":"STARLINK-2715","OBJECT_ID":"2021-044BM","EPOCH":"2023-05-30T11:54:30.998304","MEAN_MOTION":15.06409123,"ECCENTRICITY":0.0001074,"INCLINATION":53.0537,"RA_OF_ASC_NODE":324.518,"ARG_OF_PERICENTER":72.8759,"MEAN_ANOMALY":287.2348,"EPHEMERIS_TYPE":0,"CLASSIFICATION_TYPE":"U","NORAD_CAT_ID":48697,"ELEMENT_SET_NO":999,"REV_AT_EPOCH":11126,"BSTAR":0.00098392,"MEAN_MOTION_DOT":0.00014408,"MEAN_MOTION_DDOT":0},{"OBJECT_NAME":"ONEWEB-0211","OBJECT_ID":"2021-045A","EPOCH":"2023-05-30T11:08:46.862592","MEAN_MOTION":13.15548486,"ECCENTRICITY":0.0002029,"INCLINATION":87.9003,"RA_OF_ASC_NODE":120.9556,"ARG_OF_PERICENTER":81.6884,"MEAN_ANOMALY":278.4476,"EPHEMERIS_TYPE":0,"CLASSIFICATION_TYPE":"U","NORAD_CAT_ID":48767,"ELEMENT_SET_NO":999,"REV_AT_EPOCH":9798,"BSTAR":4.779e-6,"MEAN_MOTION_DOT":1.5e-7,"MEAN_MOTION_DDOT":0},{"OBJECT_NAME":"ONEWEB-0223","OBJECT_ID":"2021-045B","EPOCH":"2023-05-30T09:49:40.407744","MEAN_MOTION":13.15548536,"ECCENTRICITY":0.0002197,"INCLINATION":87.8999,"RA_OF_ASC_NODE":120.9739,"ARG_OF_PERICENTER":71.4929,"MEAN_ANOMALY":288.6439,"EPHEMERIS_TYPE":0,"CLASSIFICATION_TYPE":"U","NORAD_CAT_ID":48768,"ELEMENT_SET_NO":999,"REV_AT_EPOCH":9796,"BSTAR":-2.2294e-5,"MEAN_MOTION_DOT":4.0e-8,"MEAN_MOTION_DDOT":0},{"OBJECT_NAME":"ONEWEB-0230","OBJECT_ID":"2021-045C","EPOCH":"2023-05-30T10:59:39.008832","MEAN_MOTION":13.15551955,"ECCENTRICITY":0.0002188,"INCLINATION":87.9022,"RA_OF_ASC_NODE":121.0096,"ARG_OF_PERICENTER":84.0617,"MEAN_ANOMALY":276.0763,"EPHEMERIS_TYPE":0,"CLASSIFICATION_TYPE":"U","NORAD_CAT_ID":48769,"ELEMENT_SET_NO":999,"REV_AT_EPOCH":9823,"BSTAR":0.00018903,"MEAN_MOTION_DOT":8.4e-7,"MEAN_MOTION_DDOT":0},{"OBJECT_NAME":"ONEWEB-0237","OBJECT_ID":"2021-045D","EPOCH":"2023-05-30T10:44:26.727648","MEAN_MOTION":13.15549897,"ECCENTRICITY":0.0002532,"INCLINATION":87.9005,"RA_OF_ASC_NODE":120.9445,"ARG_OF_PERICENTER":74.1025,"MEAN_ANOMALY":286.0384,"EPHEMERIS_TYPE":0,"CLASSIFICATION_TYPE":"U","NORAD_CAT_ID":48770,"ELEMENT_SET_NO":999,"REV_AT_EPOCH":9795,"BSTAR":0.00034661,"MEAN_MOTION_DOT":1.43e-6,"MEAN_MOTION_DDOT":0},{"OBJECT_NAME":"ONEWEB-0235","OBJECT_ID":"2021-045E","EPOCH":"2023-05-30T10:04:52.923936","MEAN_MOTION":13.15546631,"ECCENTRICITY":0.0002846,"INCLINATION":87.9001,"RA_OF_ASC_NODE":120.9834,"ARG_OF_PERICENTER":70.9725,"MEAN_ANOMALY":289.1713,"EPHEMERIS_TYPE":0,"CLASSIFICATION_TYPE":"U","NORAD_CAT_ID":48771,"ELEMENT_SET_NO":999,"REV_AT_EPOCH":9794,"BSTAR":5.4344e-5,"MEAN_MOTION_DOT":3.3e-7,"MEAN_MOTION_DDOT":0},{"OBJECT_NAME":"ONEWEB-0242","OBJECT_ID":"2021-045F","EPOCH":"2023-05-30T09:55:44.601888","MEAN_MOTION":13.15536534,"ECCENTRICITY":0.0002404,"INCLINATION":87.9004,"RA_OF_ASC_NODE":120.9764,"ARG_OF_PERICENTER":80.6022,"MEAN_ANOMALY":279.538,"EPHEMERIS_TYPE":0,"CLASSIFICATION_TYPE":"U","NORAD_CAT_ID":48772,"ELEMENT_SET_NO":999,"REV_AT_EPOCH":9798,"BSTAR":0.0053463,"MEAN_MOTION_DOT":2.026e-5,"MEAN_MOTION_DDOT":0},{"OBJECT_NAME":"ONEWEB-0241","OBJECT_ID":"2021-045G","EPOCH":"2023-05-30T09:37:30.197280","MEAN_MOTION":13.1555159,"ECCENTRICITY":0.00019,"INCLINATION":87.9014,"RA_OF_ASC_NODE":120.9891,"ARG_OF_PERICENTER":65.8258,"MEAN_ANOMALY":294.3071,"EPHEMERIS_TYPE":0,"CLASSIFICATION_TYPE":"U","NORAD_CAT_ID":48773,"ELEMENT_SET_NO":999,"REV_AT_EPOCH":9789,"BSTAR":0.00033581,"MEAN_MOTION_DOT":1.39e-6,"MEAN_MOTION_DDOT":0},{"OBJECT_NAME":"ONEWEB-0243","OBJECT_ID":"2021-045H","EPOCH":"2023-05-30T10:23:06.193248","MEAN_MOTION":13.15547123,"ECCENTRICITY":0.0002628,"INCLINATION":87.8999,"RA_OF_ASC_NODE":120.9514,"ARG_OF_PERICENTER":76.6037,"MEAN_ANOMALY":283.5386,"EPHEMERIS_TYPE":0,"CLASSIFICATION_TYPE":"U","NORAD_CAT_ID":48774,"ELEMENT_SET_NO":999,"REV_AT_EPOCH":9792,"BSTAR":-0.00079489,"MEAN_MOTION_DOT":-2.86e-6,"MEAN_MOTION_DDOT":0},{"OBJECT_NAME":"ONEWEB-0222","OBJECT_ID":"2021-045J","EPOCH":"2023-05-30T10:07:55.622784","MEAN_MOTION":13.15545445,"ECCENTRICITY":0.0002191,"INCLINATION":87.8999,"RA_OF_ASC_NODE":120.9897,"ARG_OF_PERICENTER":75.6676,"MEAN_ANOMALY":284.4697,"EPHEMERIS_TYPE":0,"CLASSIFICATION_TYPE":"U","NORAD_CAT_ID":48775,"ELEMENT_SET_NO":999,"REV_AT_EPOCH":9796,"BSTAR":0.0001532,"MEAN_MOTION_DOT":7.0e-7,"MEAN_MOTION_DDOT":0},{"OBJECT_NAME":"ONEWEB-0244","OBJECT_ID":"2021-045K","EPOCH":"2023-05-30T10:38:21.378336","MEAN_MOTION":13.15543077,"ECCENTRICITY":0.0002568,"INCLINATION":87.9001,"RA_OF_ASC_NODE":120.9709,"ARG_OF_PERICENTER":84.1304,"MEAN_ANOMALY":276.0119,"EPHEMERIS_TYPE":0,"CLASSIFICATION_TYPE":"U","NORAD_CAT_ID":48776,"ELEMENT_SET_NO":999,"REV_AT_EPOCH":9853,"BSTAR":0.00034796,"MEAN_MOTION_DOT":1.44e-6,"MEAN_MOTION_DDOT":0},{"OBJECT_NAME":"ONEWEB-0247","OBJECT_ID":"2021-045L","EPOCH":"2023-05-30T10:32:16.244160","MEAN_MOTION":13.15549283,"ECCENTRICITY":0.0002584,"INCLINATION":87.9013,"RA_OF_ASC_NODE":120.9697,"ARG_OF_PERICENTER":71.3829,"MEAN_ANOMALY":288.7582,"EPHEMERIS_TYPE":0,"CLASSIFICATION_TYPE":"U","NORAD_CAT_ID":48777,"ELEMENT_SET_NO":999,"REV_AT_EPOCH":9797,"BSTAR":0.00046628,"MEAN_MOTION_DOT":1.88e-6,"MEAN_MOTION_DDOT":0},{"OBJECT_NAME":"ONEWEB-0245","OBJECT_ID":"2021-045M","EPOCH":"2023-05-30T10:26:11.160960","MEAN_MOTION":13.15549776,"ECCENTRICITY":0.0001905,"INCLINATION":87.9001,"RA_OF_ASC_NODE":120.9977,"ARG_OF_PERICENTER":75.0452,"MEAN_ANOMALY":285.0889,"EPHEMERIS_TYPE":0,"CLASSIFICATION_TYPE":"U","NORAD_CAT_ID":48778,"ELEMENT_SET_NO":999,"REV_AT_EPOCH":9794,"BSTAR":0.00032508,"MEAN_MOTION_DOT":1.35e-6,"MEAN_MOTION_DDOT":0},{"OBJECT_NAME":"ONEWEB-0229","OBJECT_ID":"2021-045N","EPOCH":"2023-05-30T10:17:03.489504","MEAN_MOTION":13.15549931,"ECCENTRICITY":0.0002413,"INCLINATION":87.9,"RA_OF_ASC_NODE":120.9873,"ARG_OF_PERICENTER":83.953,"MEAN_ANOMALY":276.1875,"EPHEMERIS_TYPE":0,"CLASSIFICATION_TYPE":"U","NORAD_CAT_ID":48779,"ELEMENT_SET_NO":999,"REV_AT_EPOCH":9797,"BSTAR":0.00032697,"MEAN_MOTION_DOT":1.36e-6,"MEAN_MOTION_DDOT":0}]
