STARLINK-2748           
1 48694U 21044BJ  23150.18793241  .00003706  00000+0  26756-3 0  9992
2 48694  53.0540 320.8840 0000799  83.3668 276.7412 15.06401467111280
STARLINK-2616           
1 48695U 21044BK  23150.21100062  .00015933  00000+0  10861-2 0  9994
2 48695  53.0539 320.8376 0000983  81.2224 278.8876 15.06401180111293
STARLINK-2753           
1 48696U 21044BL  23150.20132028 -.00000343  00000+0 -41112-5 0  9998
2 48696  53.0539 325.8817 0001073  69.4957 290.6147 15.06402194111223
STARLINK-2715           
1 48697U 21044BM  23150.49619211  .00014408  00000+0  98392-3 0  9999
2 48697  53.0537 324.5180 0001074  72.8759 287.2348 15.06409123111268
ONEWEB-0211             
1 48767U 21045A   23150.46443128  .00000015  00000+0  47790-5 0  9994
2 48767  87.9003 120.9556 0002029  81.6884 278.4476 13.15548486 97983
ONEWEB-0223             
1 48768U 21045B   23150.40949546  .00000004  00000+0 -22294-4 0  9994
2 48768  87.8999 120.9739 0002197  71.4929 288.6439 13.15548536 97969
ONEWEB-0230             
1 48769U 21045C   23150.45809038  .00000084  00000+0  18903-3 0  9999
2 48769  87.9022 121.0096 0002188  84.0617 276.0763 13.15551955 98231
ONEWEB-0237             
1 48770U 21045D   23150.44753157  .00000143  00000+0  34661-3 0  9995
2 48770  87.9005 120.9445 0002532  74.1025 286.0384 13.15549897 97956
ONEWEB-0235             
1 48771U 21045E   23150.42005699  .00000033  00000+0  54344-4 0  9994
2 48771  87.9001 120.9834 0002846  70.9725 289.1713 13.15546631 97946
ONEWEB-0242             
1 48772U 21045F   23150.41371067  .00002026  00000+0  53463-2 0  9992
2 48772  87.9004 120.9764 0002404  80.6022 279.5380 13.15536534 97988
ONEWEB-0241             
1 48773U 21045G   23150.40104395  .00000139  00000+0  33581-3 0  9993
2 48773  87.9014 120.9891 0001900  65.8258 294.3071 13.15551590 97898
ONEWEB-0243             
1 48774U 21045H   23150.43271057 -.00000286  00000+0 -79489-3 0  9999
2 48774  87.8999 120.9514 0002628  76.6037 283.5386 13.15547123 97925
ONEWEB-0222             
1 48775U 21045J   23150.42217156  .00000070  00000+0  15320-3 0  9992
2 48775  87.8999 120.9897 0002191  75.6676 284.4697 13.15545445 97967
ONEWEB-0244             
1 48776U 21045K   23150.44330299  .00000144  00000+0  34796-3 0  9999
2 48776  87.9001 120.9709 0002568  84.1304 276.0119 13.15543077 98535
ONEWEB-0247             
1 48777U 21045L   23150.43907690  .00000188  00000+0  46628-3 0  9999
2 48777  87.9013 120.9697 0002584  71.3829 288.7582 13.15549283 97979
ONEWEB-0245             
1 48778U 21045M   23150.43485140  .00000135  00000+0  32508-3 0  9995
2 48778  87.9001 120.9977 0001905  75.0452 285.0889 13.15549776 97941
ONEWEB-0229             
1 48779U 21045N   23150.42851261  .00000136  00000+0  32697-3 0  9996
2 48779  87.9000 120.9873 0002413  83.9530 276.1875 13.15549931 97978
